[{"OBJECT_NAME":"TDRS 3","OBJECT_ID":"1988-091B","EPOCH":"2026-03-05T19:09:20.611872","MEAN_MOTION":1.00259845,"ECCENTRICITY":0.00441837,"INCLINATION":12.6797,"RA_OF_ASC_NODE":341.6841,"ARG_OF_PERICENTER":353.3967,"MEAN_ANOMALY":66.2018,"EPHEMERIS_TYPE":0,"CLASSIFICATION_TYPE":"U","NORAD_CAT_ID":19548,"ELEMENT_SET_NO":999,"REV_AT_EPOCH":12435,"BSTAR":0,"MEAN_MOTION_DOT":-3.03e-6,"MEAN_MOTION_DDOT":0},{"OBJECT_NAME":"HST","OBJECT_ID":"1990-037B","EPOCH":"2026-03-07T01:43:17.774400","MEAN_MOTION":15.29432288,"ECCENTRICITY":0.0001811,"INCLINATION":28.471,"RA_OF_ASC_NODE":57.8566,"ARG_OF_PERICENTER":100.2255,"MEAN_ANOMALY":259.8544,"EPHEMERIS_TYPE":0,"CLASSIFICATION_TYPE":"U","NORAD_CAT_ID":20580,"ELEMENT_SET_NO":999,"REV_AT_EPOCH":77291,"BSTAR":0.00029166,"MEAN_MOTION_DOT":8.8e-5,"MEAN_MOTION_DDOT":0},{"OBJECT_NAME":"TDRS 5","OBJECT_ID":"1991-054B","EPOCH":"2026-03-06T12:33:15.739776","MEAN_MOTION":1.00267576,"ECCENTRICITY":0.0010509,"INCLINATION":14.0838,"RA_OF_ASC_NODE":354.5373,"ARG_OF_PERICENTER":278.0351,"MEAN_ANOMALY":272.4101,"EPHEMERIS_TYPE":0,"CLASSIFICATION_TYPE":"U","NORAD_CAT_ID":21639,"ELEMENT_SET_NO":999,"REV_AT_EPOCH":12668,"BSTAR":0,"MEAN_MOTION_DOT":8.2e-7,"MEAN_MOTION_DDOT":0},{"OBJECT_NAME":"TDRS 6","OBJECT_ID":"1993-003B","EPOCH":"2026-03-07T03:01:04.947744","MEAN_MOTION":1.00277756,"ECCENTRICITY":0.000547,"INCLINATION":14.1809,"RA_OF_ASC_NODE":357.815,"ARG_OF_PERICENTER":200.0439,"MEAN_ANOMALY":326.3296,"EPHEMERIS_TYPE":0,"CLASSIFICATION_TYPE":"U","NORAD_CAT_ID":22314,"ELEMENT_SET_NO":999,"REV_AT_EPOCH":12138,"BSTAR":0,"MEAN_MOTION_DOT":-2.96e-6,"MEAN_MOTION_DDOT":0},{"OBJECT_NAME":"TDRS 7","OBJECT_ID":"1995-035B","EPOCH":"2026-03-06T14:35:05.963424","MEAN_MOTION":1.00275918,"ECCENTRICITY":0.00082566,"INCLINATION":13.4196,"RA_OF_ASC_NODE":348.8936,"ARG_OF_PERICENTER":47.7375,"MEAN_ANOMALY":75.5122,"EPHEMERIS_TYPE":0,"CLASSIFICATION_TYPE":"U","NORAD_CAT_ID":23613,"ELEMENT_SET_NO":999,"REV_AT_EPOCH":11222,"BSTAR":0,"MEAN_MOTION_DOT":-2.41e-6,"MEAN_MOTION_DDOT":0},{"OBJECT_NAME":"ISS (ZARYA)","OBJECT_ID":"1998-067A","EPOCH":"2026-03-06T20:49:01.409088","MEAN_MOTION":15.48482048,"ECCENTRICITY":0.0008109,"INCLINATION":51.6318,"RA_OF_ASC_NODE":86.3097,"ARG_OF_PERICENTER":164.5613,"MEAN_ANOMALY":195.5624,"EPHEMERIS_TYPE":0,"CLASSIFICATION_TYPE":"U","NORAD_CAT_ID":25544,"ELEMENT_SET_NO":999,"REV_AT_EPOCH":55589,"BSTAR":0.00016627,"MEAN_MOTION_DOT":8.564e-5,"MEAN_MOTION_DDOT":0},{"OBJECT_NAME":"TERRA","OBJECT_ID":"1999-068A","EPOCH":"2026-03-07T04:22:44.122368","MEAN_MOTION":14.61011101,"ECCENTRICITY":0.0002549,"INCLINATION":97.9598,"RA_OF_ASC_NODE":119.7129,"ARG_OF_PERICENTER":157.7007,"MEAN_ANOMALY":269.8251,"EPHEMERIS_TYPE":0,"CLASSIFICATION_TYPE":"U","NORAD_CAT_ID":25994,"ELEMENT_SET_NO":999,"REV_AT_EPOCH":39471,"BSTAR":0.00011129,"MEAN_MOTION_DOT":5.02e-6,"MEAN_MOTION_DDOT":0},{"OBJECT_NAME":"TDRS 8","OBJECT_ID":"2000-034A","EPOCH":"2026-03-06T21:12:29.928672","MEAN_MOTION":1.00276039,"ECCENTRICITY":0.0006147,"INCLINATION":12.523,"RA_OF_ASC_NODE":32.175,"ARG_OF_PERICENTER":309.324,"MEAN_ANOMALY":226.0171,"EPHEMERIS_TYPE":0,"CLASSIFICATION_TYPE":"U","NORAD_CAT_ID":26388,"ELEMENT_SET_NO":999,"REV_AT_EPOCH":9415,"BSTAR":0,"MEAN_MOTION_DOT":-1.97e-6,"MEAN_MOTION_DDOT":0},{"OBJECT_NAME":"TIMED","OBJECT_ID":"2001-055B","EPOCH":"2026-03-07T04:04:50.846016","MEAN_MOTION":14.95011704,"ECCENTRICITY":0.0003019,"INCLINATION":74.066,"RA_OF_ASC_NODE":80.3917,"ARG_OF_PERICENTER":278.6821,"MEAN_ANOMALY":81.4022,"EPHEMERIS_TYPE":0,"CLASSIFICATION_TYPE":"U","NORAD_CAT_ID":26998,"ELEMENT_SET_NO":999,"REV_AT_EPOCH":31557,"BSTAR":0.0001557,"MEAN_MOTION_DOT":1.664e-5,"MEAN_MOTION_DDOT":0},{"OBJECT_NAME":"AQUA","OBJECT_ID":"2002-022A","EPOCH":"2026-03-07T05:16:53.076000","MEAN_MOTION":14.61969233,"ECCENTRICITY":5.82e-5,"INCLINATION":98.4172,"RA_OF_ASC_NODE":33.54,"ARG_OF_PERICENTER":69.71,"MEAN_ANOMALY":348.1417,"EPHEMERIS_TYPE":0,"CLASSIFICATION_TYPE":"U","NORAD_CAT_ID":27424,"ELEMENT_SET_NO":999,"REV_AT_EPOCH":26837,"BSTAR":0.00027967,"MEAN_MOTION_DOT":1.352e-5,"MEAN_MOTION_DDOT":0},{"OBJECT_NAME":"SORCE","OBJECT_ID":"2003-004A","EPOCH":"2026-03-07T04:11:06.748224","MEAN_MOTION":15.03073566,"ECCENTRICITY":0.0016148,"INCLINATION":39.99,"RA_OF_ASC_NODE":123.4374,"ARG_OF_PERICENTER":35.6865,"MEAN_ANOMALY":324.5005,"EPHEMERIS_TYPE":0,"CLASSIFICATION_TYPE":"U","NORAD_CAT_ID":27651,"ELEMENT_SET_NO":999,"REV_AT_EPOCH":25654,"BSTAR":0.00029266,"MEAN_MOTION_DOT":3.876e-5,"MEAN_MOTION_DDOT":0},{"OBJECT_NAME":"AURA","OBJECT_ID":"2004-026A","EPOCH":"2026-03-07T02:16:28.642944","MEAN_MOTION":14.61141228,"ECCENTRICITY":0.000102,"INCLINATION":98.3308,"RA_OF_ASC_NODE":21.7809,"ARG_OF_PERICENTER":81.7081,"MEAN_ANOMALY":278.4235,"EPHEMERIS_TYPE":0,"CLASSIFICATION_TYPE":"U","NORAD_CAT_ID":28376,"ELEMENT_SET_NO":999,"REV_AT_EPOCH":15130,"BSTAR":0.00028373,"MEAN_MOTION_DOT":1.348e-5,"MEAN_MOTION_DDOT":0},{"OBJECT_NAME":"SWIFT","OBJECT_ID":"2004-047A","EPOCH":"2026-03-06T19:03:28.573344","MEAN_MOTION":15.58979633,"ECCENTRICITY":0.0003487,"INCLINATION":20.5529,"RA_OF_ASC_NODE":249.2327,"ARG_OF_PERICENTER":356.0268,"MEAN_ANOMALY":4.0148,"EPHEMERIS_TYPE":0,"CLASSIFICATION_TYPE":"U","NORAD_CAT_ID":28485,"ELEMENT_SET_NO":999,"REV_AT_EPOCH":17081,"BSTAR":0.00054737,"MEAN_MOTION_DOT":0.00045449,"MEAN_MOTION_DDOT":0},{"OBJECT_NAME":"THEMIS A","OBJECT_ID":"2007-004A","EPOCH":"2026-03-06T06:06:07.379712","MEAN_MOTION":0.87846947,"ECCENTRICITY":0.8404679,"INCLINATION":6.7657,"RA_OF_ASC_NODE":120.0357,"ARG_OF_PERICENTER":177.7629,"MEAN_ANOMALY":194.1197,"EPHEMERIS_TYPE":0,"CLASSIFICATION_TYPE":"U","NORAD_CAT_ID":30580,"ELEMENT_SET_NO":999,"REV_AT_EPOCH":4037,"BSTAR":-0.005712,"MEAN_MOTION_DOT":-2.31e-6,"MEAN_MOTION_DDOT":0},{"OBJECT_NAME":"THEMIS D","OBJECT_ID":"2007-004D","EPOCH":"2026-03-07T03:07:45.024672","MEAN_MOTION":0.87835931,"ECCENTRICITY":0.8357397,"INCLINATION":6.6363,"RA_OF_ASC_NODE":84.5966,"ARG_OF_PERICENTER":216.1101,"MEAN_ANOMALY":98.3958,"EPHEMERIS_TYPE":0,"CLASSIFICATION_TYPE":"U","NORAD_CAT_ID":30797,"ELEMENT_SET_NO":999,"REV_AT_EPOCH":4018,"BSTAR":0,"MEAN_MOTION_DOT":-2.89e-6,"MEAN_MOTION_DDOT":0},{"OBJECT_NAME":"THEMIS E","OBJECT_ID":"2007-004E","EPOCH":"2026-03-07T03:08:44.928384","MEAN_MOTION":0.87837684,"ECCENTRICITY":0.8361394,"INCLINATION":4.1604,"RA_OF_ASC_NODE":99.7438,"ARG_OF_PERICENTER":201.9151,"MEAN_ANOMALY":113.0212,"EPHEMERIS_TYPE":0,"CLASSIFICATION_TYPE":"U","NORAD_CAT_ID":30798,"ELEMENT_SET_NO":999,"REV_AT_EPOCH":6502,"BSTAR":0,"MEAN_MOTION_DOT":-2.89e-6,"MEAN_MOTION_DDOT":0},{"OBJECT_NAME":"FGRST (GLAST)","OBJECT_ID":"2008-029A","EPOCH":"2026-03-06T17:38:49.966656","MEAN_MOTION":15.23303351,"ECCENTRICITY":0.0008149,"INCLINATION":25.5812,"RA_OF_ASC_NODE":195.5362,"ARG_OF_PERICENTER":193.3644,"MEAN_ANOMALY":166.6679,"EPHEMERIS_TYPE":0,"CLASSIFICATION_TYPE":"U","NORAD_CAT_ID":33053,"ELEMENT_SET_NO":999,"REV_AT_EPOCH":98019,"BSTAR":0.00018384,"MEAN_MOTION_DOT":4.828e-5,"MEAN_MOTION_DDOT":0}]
